ONEWEB-0281             
1 48999U 21060AJ  24062.49180893 -.00000276  00000+0 -75541-3 0  9995
2 48999  87.9085  35.2783 0002105  86.0237 274.1134 13.16594861129536
ONEWEB-0282             
1 49000U 21060AK  24062.44591257  .00000110  00000+0  25472-3 0  9997
2 49000  87.9086  35.3044 0001744  71.1704 288.9616 13.16593276129508
ONEWEB-0283             
1 49001U 21060AL  24062.43482706  .00000062  00000+0  12895-3 0  9996
2 49001  87.9084  35.3141 0002011  74.8735 285.2618 13.16592850129517
ONEWEB-0284             
1 49002U 21060AM  24062.42849285  .00000062  00000+0  12867-3 0  9994
2 49002  87.9077  35.3052 0001692  76.3994 283.7325 13.16594921129495
ONEWEB-0285             
1 49075U 21075A   24062.28207923 -.00000220  00000+0 -64782-3 0  9992
2 49075  87.9040 157.2205 0001781 105.9147 254.2178 13.12444027125433
ONEWEB-0286             
1 49076U 21075B   24062.32961629  .00000487  00000+0  13178-2 0  9993
2 49076  87.9035 157.2173 0002089 117.2756 242.8586 13.12442940124792
ONEWEB-0287             
1 49077U 21075C   24062.35059508  .00000314  00000+0  77546-3 0  9990
2 49077  87.9263 172.3218 0001616 117.7102 242.4193 13.17647751123420
ONEWEB-0288             
1 49078U 21075D   24062.54241157 -.00000107  00000+0 -33301-3 0  9998
2 49078  87.9035 157.1787 0001713 111.3872 248.7439 13.12444229125448
